{
  "type" : "FeatureCollection",
  "features" : [{"type":"Feature","id":1,"geometry":{"type":"Polygon","coordinates":[[[-64.949240293999935,-2.9141425479999725],[-62.517557066999984,-1.4503852929999539],[-59.634597571999961,0.49723195200004966],[-56.939133374999983,2.4616845520000652],[-50.523253129999944,7.3336053330000368],[-47.442396234999933,9.6105962940000609],[-44.20708045899994,11.872584835000055],[-41.324248937999982,13.726538480000045],[-39.707866317999958,14.676494787000024],[-38.222448114999963,15.475043264000021],[-36.866003311999975,16.123385980000023],[-35.655968321999978,16.613306480000062],[-34.590664688999937,16.945345241000041],[-33.685040776999983,17.114476422000052],[-32.941368584999964,17.120676128000071],[-32.365273370999944,16.96440367200006],[-32.053094199999975,16.75092783100007],[-31.844091876999983,16.495608029000039],[-31.685380641999984,16.172002329000065],[-31.581450317999952,15.802464224000062],[-31.524220010999954,15.38647437000003],[-31.515678393999963,14.768765693000034],[-31.679083934999937,13.547249101000034],[-32.031619654999929,12.318885891000036],[-32.552858163999929,11.096357784000077],[-33.314531042999931,9.6930862330000309],[-34.303753695999944,8.1481143170000223],[-35.313843223999982,6.7357040710000433],[-36.495690284999966,5.2077645660000371],[-39.392931808999947,1.7833432450000259],[-42.494719718999932,-1.6113702269999521],[-49.372580384999935,-8.8714195779999727],[-52.223941791999948,-12.085498733999941],[-53.510299968999959,-13.68498475399997],[-54.579881806999936,-15.155649580999977],[-55.508774338999956,-16.614585545999944],[-56.301283788999967,-18.100501416999975],[-57.025447145999976,-19.860756282999944],[-57.455302187999962,-21.379982971999937],[-57.637542692999943,-22.390691216999983],[-57.717641175999972,-23.144283065999957],[-57.729317370999979,-24.631301181999959],[-57.625619404999952,-25.601388190999955],[-57.488760713999966,-26.314610924999954],[-57.061735085999942,-27.696305047999942],[-56.66218865999997,-28.578358150999975],[-56.301355934999947,-29.216005318999976],[-55.419899701999952,-30.419488738999974],[-54.712495782999952,-31.159273408999979],[-54.11895990499994,-31.675428434999958],[-53.244836085999964,-32.304376306999984],[-52.529125438999984,-32.725963793999938],[-51.499501495999937,-33.212670683999931],[-50.675537499999962,-33.515465379999966],[-49.517086215999939,-33.828735303999963],[-48.610966057999974,-33.99171931199993],[-47.680249903999936,-34.090528069999948],[-46.732064088999948,-34.124043841999935],[-45.773707746999946,-34.09228031899994],[-44.492431814999975,-33.950551286999939],[-43.537514166999983,-33.772862607999969],[-42.283394366999971,-33.447422953999933],[-41.363224384999967,-33.142583018999972],[-40.170040474999951,-32.664381655999932],[-38.460996355999953,-31.817883707999954],[-36.429145858999959,-30.574329605999935],[-34.43752204599997,-29.13230671599996],[-32.31803105399996,-27.391659606999951],[-30.39442553799995,-25.66029502799995],[-28.276927630999978,-23.624881456999958],[-21.502552497999943,-16.712456217999943],[-19.160235559999933,-14.404522392999979],[-16.823237961999951,-12.291048714999931],[-14.772170403999951,-10.682585275999941],[-13.613120996999953,-9.9110074649999547],[-12.51665646999993,-9.2927849959999662],[-11.463445639999975,-8.8167420889999448],[-10.453487407999944,-8.4831634439999561],[-9.4427112749999651,-8.27986451299995],[-8.3174622329999579,-8.1902203329999566],[-7.1928371899999775,-8.2235799569999699],[-6.0795201399999428,-8.3673703589999491],[-4.5645099469999764,-8.7456528709999475],[-3.3338393509999378,-9.2417473809999251],[-2.3039790929999526,-9.8425475629999255],[-1.2120636899999795,-10.743454708999934],[-0.13733543299997564,-11.957384268999931],[0.83641925600005607,-13.344324167999957],[1.8630353610000725,-15.083819888999926],[2.9163998160000233,-17.187194343999977],[3.5391706590000354,-18.664339327999983],[3.9861539340000718,-19.944044467999959],[4.3131937940000284,-21.147820140999954],[4.569485372000031,-22.460835851999946],[4.8718354140000315,-25.116710173999934],[5.2689715210000259,-31.623050231999969],[5.4770118220000654,-33.253088950999938],[5.7312787280000634,-34.572377671999959],[6.1555412850000266,-36.104320128999973],[6.7320534220000354,-37.578004156999953],[7.4862428370000202,-38.990665214999979],[8.2712869950000254,-40.115519803999973],[8.8185227350000446,-40.763090424999973],[9.4272574610000675,-41.385827397999947],[10.100363551000044,-41.978939349999962],[10.839721313000041,-42.536622368999986],[11.645854608000036,-43.052240022999968],[12.517608320000022,-43.518611909999947],[14.107084783000062,-44.16661552599993],[15.842724310000051,-44.626099457999942],[17.683414386000038,-44.873361702999944],[19.577826238000057,-44.897031346999938],[20.717295861000025,-44.804700269999955],[21.844714520000025,-44.636130719999983],[23.311281086000065,-44.301669771999968],[24.717341760000068,-43.856362194999974],[26.048167679000073,-43.318514492999952],[27.593806632000053,-42.545212988999936],[29.006414358000029,-41.69238691299995],[30.295508427000073,-40.789444918999948],[31.705682893000073,-39.670377796999958],[33.201709409000046,-38.360177661999955],[34.707949480000025,-36.952809402999947],[35.830131889000029,-35.821123587999978],[36.851531265000062,-34.697639979999963],[37.939161541000033,-33.366090812999971],[38.881889244000035,-32.061073089999979],[39.693782124000052,-30.793086162999941],[42.194508154000061,-26.281216693999966],[42.78638892400005,-25.536488037999959],[43.078516659000059,-25.290883325999971],[43.373998954000058,-25.124413605999962],[43.709519148000027,-25.026364396999952],[44.06615352700004,-25.01208977899995],[44.45453798300008,-25.081943606999971],[44.887123520000046,-25.238202094999963],[45.887170473000026,-25.795172182999977],[48.921759351000048,-27.832989608999981],[50.608890184000074,-28.76832436799998],[51.784869963000062,-29.294783068999948],[52.789188201000059,-29.66185395499997],[53.843509135000033,-29.96616944799996],[54.938755317000073,-30.19509768599994],[56.34718534700005,-30.358696531999954],[57.488147825000055,-30.381429712999932],[58.62495070600005,-30.30253334899993],[59.741865929000028,-30.120459034999953],[60.82402453900005,-29.836923405999983],[61.858308381000029,-29.45651862699998],[62.834000383000046,-28.986067498999944],[63.743124815000044,-28.43383433899993],[64.971290268000075,-27.471620755999936],[65.522293411000078,-26.938285348999955],[66.191370133000078,-26.180705812999975],[66.644688816000041,-25.581669293999937],[67.18622305100007,-24.747127426999953],[67.658535234000055,-23.877179109999929],[68.065069342000072,-22.977530723999962],[68.630707810000047,-21.348659287999965],[69.034846605000041,-19.677700209999955],[69.314959759000033,-17.999055096999939],[69.739905978000081,-14.662993574999973],[69.992705482000076,-13.319108984999957],[70.368788391000066,-12.099782354999945],[70.87749678800003,-11.096897669999976],[71.324384120000047,-10.494519781999941],[71.720536500000037,-10.089202630999978],[72.157005244000061,-9.7330112409999288],[72.803727495000032,-9.3134811089999516],[73.516187982000076,-8.9452154869999276],[74.285443864000058,-8.6176044359999651],[76.400926663000064,-7.9307467809999252],[77.99521594600003,-7.5434355319999327],[79.406950167000048,-7.2791915669999412],[80.604305069000077,-7.1214352069999336],[81.931292333000044,-7.0364795319999303],[83.153301659000078,-7.0588610129999552],[84.377871811000034,-7.1888537459999498],[85.394466077000061,-7.391099747999931],[86.438878000000045,-7.6935146859999577],[88.321344401000033,-8.4451713889999382],[90.440716189000057,-9.5357412639999666],[92.524887835000072,-10.774360789999946],[98.161949769000046,-14.325787942999966],[99.867982850000033,-15.305261494999968],[101.47256509000005,-16.137172106999969],[103.39913677300007,-17.008539354999982],[105.37080817300006,-17.757866434999983],[107.49514274400008,-18.420841206999967],[109.49098387600009,-18.919917664999957],[111.18719262400003,-19.221474084999954],[112.60102027100004,-19.365766534999977],[114.28176969700007,-19.389553074999981],[115.65274868900008,-19.273492812999962],[116.98020902600001,-19.028512895999938],[118.24866490600004,-18.654278409999961],[119.44400288800011,-18.154467192999959],[120.55438247400002,-17.535917505999976],[121.17591535500003,-17.111472280999976],[121.94931394200012,-16.487830644999974],[122.48643956700005,-15.97977647099998],[123.14392547400007,-15.253058313999929],[123.59244046900005,-14.67410758099993],[124.13066014100002,-13.861506426999938],[124.90918060500007,-12.343842322999933],[125.26280816600001,-11.432181902999957],[125.5528653020001,-10.495898756999964],[125.78275647900011,-9.5413271059999261],[125.99257238200005,-8.3321581399999332],[126.19118523300006,-6.1480303009999488],[126.3372831910001,-1.3099433179999664],[126.52129695400004,0.0047671000000377717],[126.84370210100008,1.1451987790000544],[127.25705080600005,2.1343251280000572],[127.76207057200008,3.1211576580000724],[131.40499520800006,9.2776140990000613],[134.90160173800007,15.921749677000037],[135.55770807900001,16.992646704000038],[136.34835170700012,18.090556665000065],[137.17419667900003,19.043852163000054],[138.08026455200002,19.91227918900006],[139.13960886100006,20.77268840000005],[140.26824833800003,21.584816963000037],[145.00680441600002,24.643352661000051],[147.14974676700001,26.164166465000051],[148.26811395600009,27.07603739700005],[149.1096651580001,27.84422371200003],[149.89477041800012,28.647356932000037],[150.61563643200009,29.484415979000062],[151.41584322600011,30.574850986000058],[152.09336560400004,31.707890167000073],[152.63942953900005,32.875012539000068],[153.04813875200011,34.066938963000041],[153.31631412100012,35.274832429000071],[153.44286590500008,36.491581522000047],[153.42763065100007,37.712968617000058],[153.26976418200002,38.938423829000044],[152.88727141100003,40.418895803000055],[152.39933287200006,41.667907596000077],[151.59531578000008,43.195369311000036],[150.62572235000005,44.643105029000026],[149.44528561700008,46.109068384000068],[148.06506490700008,47.58023339500005],[146.4867219140001,49.055132450000031],[144.7177894780001,50.525104547000069],[142.77486889600004,51.974920756000074],[140.68685298800006,53.383470593000027],[138.45540562800011,54.74977326000004],[136.1022555830001,56.059832257000039],[133.65276382900004,57.300369068000066],[131.09790161700005,58.476246239000034],[128.45269937800003,59.580041698000059],[125.72091971700002,60.610177338000028],[123.41498538900009,61.400201106000054],[121.06688873600001,62.13547438300003],[118.64848496500008,62.824736377000079],[116.1790892250001,63.462046060000034],[113.6455816990001,64.050692042000037],[111.07059618600005,64.585750913000084],[105.72506484600007,65.510987158000034],[100.63519516200006,66.18550614000003],[95.179144769000061,66.720299944000033],[89.98620403700005,67.088887312000054],[79.432888168000034,67.681546480000065],[75.080921332000059,68.043521417000079],[72.076751501000047,68.418510697000045],[69.241794606000042,68.861042258000055],[66.279497984000045,69.421176224000078],[64.037799366000058,69.93876440400004],[61.83926075100004,70.569299199000056],[59.988695227000051,71.245931019000068],[58.429867289000072,71.950021957000047],[54.111794970000062,74.056802851000043],[51.262019949000035,75.314604306000035],[48.222775267000031,76.518428395000058],[42.274739540000041,78.707645660000082],[39.974747674000071,79.615278360000048],[37.842821932000049,80.564292766000051],[32.588214317000052,83.134008240000071],[29.418392276000077,84.465164123000079],[26.85283709600003,85.35053214900006],[24.140557338000065,86.113822392000031],[21.312202419000073,86.749004401000036],[18.20219263000007,87.293731730000047],[15.570553494000023,87.654313177000063],[12.666746904000036,87.968018777000054],[9.5339989780000565,88.22887731700007],[6.0773370910000608,88.445589067000071],[-1.8887622019999526,88.757431925000049],[-12.480532679999953,88.95572696000005],[-35.384553538999967,89.100934091000056],[-67.452796430999967,89.106091712000079],[-89.621982556999967,89.000709673000074],[-96.569638583999961,88.903929969000046],[-101.90514140499994,88.76814593000006],[-107.68110590499998,88.506641571000046],[-112.52135144199997,88.127824949000058],[-116.66135606399996,87.612784737000084],[-120.20574930399999,86.955765253000038],[-121.84084193599995,86.559094794000032],[-123.41605312099995,86.104963181000073],[-124.88566824399999,85.604367606000039],[-126.25421948499996,85.057716270000071],[-127.54463935499996,84.456716414000084],[-128.76413400599995,83.79693519500006],[-129.90203012899997,83.084506919000034],[-130.97193183999997,82.312168044000032],[-132.05983819499994,81.403942266000058],[-133.08675149899994,80.408956025000066],[-134.04525407699998,79.333721739000055],[-134.94130568099996,78.173409172000049],[-135.78739572799998,76.911042718000033],[-136.57608210299998,75.55737265700003],[-137.31657145199995,74.097223383000085],[-138.00667984999995,72.534453729000063],[-138.67407449399997,70.793238229000053],[-139.28569484199994,68.946396250000078],[-139.84129058999997,66.996558963000041],[-140.33706212199996,64.956107187000043],[-140.76648569399998,62.847239193000064],[-141.11711671499995,60.727884908000078],[-141.38225924799997,58.639149186000054],[-141.55694182899998,56.621588388000077],[-141.64506288899997,53.592444542000067],[-141.60615014099994,52.280705567000041],[-141.49808884999999,50.827754242000026],[-141.31631384899998,49.383207330000062],[-141.11457631099995,48.220909779000067],[-140.79067261499995,46.752150417000053],[-140.39025088099999,45.263134764000029],[-139.72068168899995,43.144186150000053],[-138.78977457399998,40.490764548000072],[-138.08343142699999,38.628415413000027],[-137.41295095299995,37.062367351000034],[-136.65320864999995,35.52129311200008],[-135.93884328799999,34.260566839000035],[-135.14444532299996,33.02797492600007],[-134.26847855299997,31.830768177000039],[-132.70409667999996,30.004961746000049],[-130.96407106799995,28.303646277000041],[-128.99761156,26.658754800000054],[-127.07900999399999,25.287141980000058],[-125.57963972099998,24.357971034000059],[-123.78623686699996,23.385046054000043],[-121.71465336999995,22.406733389000067],[-117.00286771699996,20.376934149000078],[-115.67047170299998,19.683347284000035],[-114.67038816399997,19.034370410000065],[-113.95485693299997,18.467282624000063],[-113.10403029699995,17.68909074000004],[-110.06933479299994,14.532967187000054],[-108.60159957299999,13.104957715000069],[-107.02006662499997,11.749593358000027],[-105.32539973799999,10.510514365000063],[-103.76265277099998,9.5417607470000689],[-101.91035976499995,8.5712027870000611],[-100.02145842699997,7.7301642100000549],[-95.84667424099996,6.0558695340000668],[-94.75222827999994,5.5471399280000355],[-93.80526393599996,5.0277082510000355],[-92.99773666599998,4.504460454000025],[-92.012895525999966,3.7800550490000546],[-88.026529351999955,0.51591167800006588],[-86.10626423399998,-0.94138075799997978],[-83.694742797999936,-2.5500055459999658],[-81.584354481999981,-3.7368018489999599],[-79.628119673999947,-4.5958557409999798],[-78.621110398999974,-4.9385101389999591],[-77.596606002999977,-5.2159721099999388],[-76.556947753999964,-5.4239214339999648],[-75.50511779499999,-5.5590348119999362],[-74.444561789999966,-5.619057833999932],[-73.378984394999975,-5.6028609269999379],[-71.513287796999975,-5.3918299849999585],[-70.452476655999988,-5.1695761129999482],[-69.399010173999955,-4.8769685559999516],[-68.354816740999979,-4.5180567399999632],[-67.320915992999971,-4.0977955209999664],[-66.042877527999963,-3.4950954629999273],[-64.949240293999935,-2.9141425479999725]]]},"properties":{"OBJECTID":1,"Shape_Length":836.31098714362327,"Shape_Area":25717.061779488165,"InPoly_FID":1,"SmoPgnFlag":0}}]
}